NORAD_CAT_ID,OBJECT_NAME,OBJECT_TYPE,EPOCH,MEAN_MOTION,ECCENTRICITY,INCLINATION,RA_OF_ASC_NODE,ARG_OF_PERICENTER,MEAN_ANOMALY,BSTAR,MEAN_MOTION_DOT,MEAN_MOTION_DDOT,TLE_LINE0,TLE_LINE1,TLE_LINE2,SEMIMAJOR_AXIS,PERIOD,APOGEE,PERIGEE,DECAYED
51890.0,STARLINK-3519,PAYLOAD,2023-04-23 02:34:09,15.09653617,0.0001191,53.2204,39.6441,120.1999,239.9112,-2.5345e-05,-7.03e-06,0.0,0 STARLINK-3519,1 51890U 22022AQ  23113.10705483 -.00000703  00000-0 -25345-4 0  9994,2 51890  53.2204  39.6441 0001191 120.1999 239.9112 15.09653617 64494,6915.395,95.386,538.083,536.436,0.0
51890.0,STARLINK-3519,PAYLOAD,2023-04-24 03:59:28,15.09671348,0.0001004,53.2202,34.8814,112.6911,247.4188,0.00015509,2.236e-05,0.0,0 STARLINK-3519,1 51890U 22022AQ  23114.16630274  .00002236  00000-0  15509-3 0  9997,2 51890  53.2202  34.8814 0001004 112.6911 247.4188 15.09671348 64652,6915.34,95.385,537.9,536.511,0.0
51890.0,STARLINK-3519,PAYLOAD,2023-04-25 00:38:47,15.09684266,0.0001048,53.2201,31.0154,84.7683,275.3429,0.00029463,4.512e-05,0.0,0 STARLINK-3519,1 51890U 22022AQ  23115.02693472  .00004512  00000-0  29463-3 0  9995,2 51890  53.2201  31.0154 0001048  84.7683 275.3429 15.09684266 64785,6915.301,95.384,537.891,536.441,0.0
51890.0,STARLINK-3519,PAYLOAD,2023-04-26 00:28:49,15.09661358,0.0001048,53.22,26.5523,93.278,266.8333,-0.00013109,-2.423e-05,0.0,0 STARLINK-3519,1 51890U 22022AQ  23116.02001640 -.00002423  00000-0 -13109-3 0  9997,2 51890  53.2200  26.5523 0001048  93.2780 266.8333 15.09661358 64939,6915.371,95.386,537.961,536.511,0.0
51890.0,STARLINK-3519,PAYLOAD,2023-04-26 21:08:09,15.09655191,0.0001181,53.2206,22.6823,102.2243,257.8882,-0.00018687,-3.33e-05,0.0,0 STARLINK-3519,1 51890U 22022AQ  23116.88067022 -.00003330  00000-0 -18687-3 0  9991,2 51890  53.2206  22.6823 0001181 102.2243 257.8882 15.09655191 65060,6915.39,95.386,538.072,536.438,0.0
51890.0,STARLINK-3519,PAYLOAD,2023-04-27 03:29:30,15.09663356,0.0001117,53.2207,21.4927,93.5097,266.6024,-0.000309,-5.317e-05,0.0,0 STARLINK-3519,1 51890U 22022AQ  23117.14548702 -.00005317  00000-0 -30900-3 0  9999,2 51890  53.2207  21.4927 0001117  93.5097 266.6024 15.09663356 65104,6915.365,95.386,538.002,536.457,0.0
51890.0,STARLINK-3519,PAYLOAD,2023-04-27 20:58:10,15.09640366,0.0001163,53.2209,18.2194,104.4308,255.6813,6.2143e-05,7.21e-06,0.0,0 STARLINK-3519,1 51890U 22022AQ  23117.87373799  .00000721  00000-0  62143-4 0  9998,2 51890  53.2209  18.2194 0001163 104.4308 255.6813 15.09640366 65216,6915.435,95.387,538.104,536.496,0.0
51890.0,STARLINK-3519,PAYLOAD,2023-04-28 09:40:52,15.09636197,0.0001061,53.2204,15.8395,102.4148,257.6964,4.8347e-05,4.96e-06,0.0,0 STARLINK-3519,1 51890U 22022AQ  23118.40338002  .00000496  00000-0  48347-4 0  9995,2 51890  53.2204  15.8395 0001061 102.4148 257.6964 15.09636197 65298,6915.448,95.387,538.047,536.579,0.0
51890.0,STARLINK-3519,PAYLOAD,2023-04-29 03:09:32,15.09643406,0.0001069,53.2198,12.5666,98.4159,261.6955,0.00011632,1.603e-05,0.0,0 STARLINK-3519,1 51890U 22022AQ  23119.13162759  .00001603  00000-0  11632-3 0  9997,2 51890  53.2198  12.5666 0001069  98.4159 261.6955 15.09643406 65408,6915.426,95.387,538.03,536.552,0.0
51890.0,STARLINK-3519,PAYLOAD,2023-04-30 01:24:13,15.09654132,0.0001175,53.2189,8.4015,112.7245,247.3872,6.6864e-05,7.98e-06,0.0,0 STARLINK-3519,1 51890U 22022AQ  23120.05848498  .00000798  00000-0  66864-4 0  9993,2 51890  53.2189   8.4015 0001175 112.7245 247.3872 15.09654132 65546,6915.393,95.386,538.071,536.445,0.0
51890.0,STARLINK-3519,PAYLOAD,2023-04-30 20:28:14,15.09647656,0.0001061,53.2193,4.8303,87.2214,272.89,9.1303e-05,1.196e-05,0.0,0 STARLINK-3519,1 51890U 22022AQ  23120.85294271  .00001196  00000-0  91303-4 0  9994,2 51890  53.2193   4.8303 0001061  87.2214 272.8900 15.09647656 65668,6915.413,95.386,538.012,536.544,0.0
51890.0,STARLINK-3519,PAYLOAD,2023-05-01 02:49:33,15.09657348,0.0001049,53.219,3.64,89.7497,270.3616,5.5529e-05,6.14e-06,0.0,0 STARLINK-3519,1 51890U 22022AQ  23121.11775459  .00000614  00000-0  55529-4 0  9990,2 51890  53.2190   3.6400 0001049  89.7497 270.3616 15.09657348 65707,6915.383,95.386,537.974,536.523,0.0
51890.0,STARLINK-3519,PAYLOAD,2023-05-01 21:53:34,15.09661543,0.0001096,53.2194,0.0682,82.9631,277.1486,6.6936e-05,8e-06,0.0,0 STARLINK-3519,1 51890U 22022AQ  23121.91220157  .00000800  00000-0  66936-4 0  9999,2 51890  53.2194   0.0682 0001096  82.9631 277.1486 15.09661543 65826,6915.37,95.386,537.993,536.477,0.0
51890.0,STARLINK-3519,PAYLOAD,2023-05-02 01:04:14,15.09661013,0.0001091,53.2194,359.4734,80.9461,279.1655,6.1965e-05,7.19e-06,0.0,0 STARLINK-3519,1 51890U 22022AQ  23122.04461010  .00000719  00000-0  61965-4 0  9995,2 51890  53.2194 359.4734 0001091  80.9461 279.1655 15.09661013 65843,6915.372,95.386,537.991,536.483,0.0
51890.0,STARLINK-3519,PAYLOAD,2023-05-02 21:43:34,15.09659115,0.0001019,53.219,355.6053,87.5692,272.5417,2.3642e-05,9.5e-07,0.0,0 STARLINK-3519,1 51890U 22022AQ  23122.90526538  .00000095  00000-0  23642-4 0  9994,2 51890  53.2190 355.6053 0001019  87.5692 272.5417 15.09659115 65977,6915.378,95.386,537.947,536.538,0.0
51890.0,STARLINK-3519,PAYLOAD,2023-05-03 00:54:15,15.09657956,0.0001053,53.2188,355.0119,80.492,279.6192,1.7419e-05,-7e-08,0.0,0 STARLINK-3519,1 51890U 22022AQ  23123.03767474 -.00000007  00000-0  17419-4 0  9994,2 51890  53.2188 355.0119 0001053  80.4920 279.6192 15.09657956 65996,6915.381,95.386,537.975,536.518,0.0
51890.0,STARLINK-3519,PAYLOAD,2023-05-03 08:50:55,15.09656422,0.0001044,53.219,353.5228,84.855,275.2562,2.5202e-07,-2.86e-06,0.0,0 STARLINK-3519,1 51890U 22022AQ  23123.36869668 -.00000286  00000-0  25202-6 0  9998,2 51890  53.2190 353.5228 0001044  84.8550 275.2562 15.09656422 66047,6915.386,95.386,537.973,536.529,0.0
51890.0,STARLINK-3519,PAYLOAD,2023-05-03 21:33:35,15.0966357,0.0001046,53.2186,351.1432,74.9906,285.1202,3.3621e-05,2.57e-06,0.0,0 STARLINK-3519,1 51890U 22022AQ  23123.89832315  .00000257  00000-0  33621-4 0  9994,2 51890  53.2186 351.1432 0001046  74.9906 285.1202 15.09663570 66122,6915.364,95.385,537.953,536.506,0.0
51890.0,STARLINK-3519,PAYLOAD,2023-05-03 23:08:54,15.0966522,0.0001051,53.2187,350.8453,77.8275,282.2835,4.7552e-05,4.84e-06,0.0,0 STARLINK-3519,1 51890U 22022AQ  23123.96452538  .00000484  00000-0  47552-4 0  9997,2 51890  53.2187 350.8453 0001051  77.8275 282.2835 15.09665220 66134,6915.359,95.385,537.951,536.497,0.0
51890.0,STARLINK-3519,PAYLOAD,2023-05-04 08:40:55,15.09657825,0.0001037,53.2188,349.0595,77.4409,282.6699,1.446e-05,-5.5e-07,0.0,0 STARLINK-3519,1 51890U 22022AQ  23124.36175484 -.00000055  00000-0  14460-4 0  9991,2 51890  53.2188 349.0595 0001037  77.4409 282.6699 15.09657825 66191,6915.382,95.386,537.964,536.53,0.0
51890.0,STARLINK-3519,PAYLOAD,2023-05-04 21:23:35,15.09655579,0.0001031,53.2187,346.6783,80.2864,279.8245,3.707e-05,3.13e-06,0.0,0 STARLINK-3519,1 51890U 22022AQ  23124.89138831  .00000313  00000-0  37070-4 0  9992,2 51890  53.2187 346.6783 0001031  80.2864 279.8245 15.09655579 66271,6915.389,95.386,537.967,536.541,0.0
51890.0,STARLINK-3519,PAYLOAD,2023-05-05 21:13:36,15.09659137,9.83e-05,53.2186,342.2141,86.4519,273.6586,9.762e-06,-1.31e-06,0.0,0 STARLINK-3519,1 51890U 22022AQ  23125.88444866 -.00000131  00000-0  97620-5 0  9997,2 51890  53.2186 342.2141 0000983  86.4519 273.6586 15.09659137 66421,6915.378,95.386,537.923,536.563,0.0
51890.0,STARLINK-3519,PAYLOAD,2023-05-05 22:48:56,15.09658165,0.0001026,53.2187,341.9165,86.919,273.192,2.3131e-05,8.6e-07,0.0,0 STARLINK-3519,1 51890U 22022AQ  23125.95065286  .00000086  00000-0  23131-4 0  9993,2 51890  53.2187 341.9165 0001026  86.9190 273.1920 15.09658165 66431,6915.381,95.386,537.955,536.536,0.0
51890.0,STARLINK-3519,PAYLOAD,2023-05-07 00:14:17,15.09653572,9.98e-05,53.2184,337.1561,85.6779,274.4328,2.4344e-05,1.06e-06,0.0,0 STARLINK-3519,1 51890U 22022AQ  23127.00992286  .00000106  00000-0  24344-4 0  9990,2 51890  53.2184 337.1561 0000998  85.6779 274.4328 15.09653572 66591,6915.395,95.386,537.95,536.57,0.0
51890.0,STARLINK-3519,PAYLOAD,2023-05-07 20:53:37,15.09656524,9.78e-05,53.2184,333.2877,84.5039,275.6065,3.0144e-05,2.01e-06,0.0,0 STARLINK-3519,1 51890U 22022AQ  23127.87057703  .00000201  00000-0  30144-4 0  9992,2 51890  53.2184 333.2877 0000978  84.5039 275.6065 15.09656524 66729,6915.386,95.386,537.927,536.574,0.0
51890.0,STARLINK-3519,PAYLOAD,2023-05-08 06:25:37,15.09659538,9.99e-05,53.2185,331.5021,82.8484,277.2622,5.6973e-05,6.37e-06,0.0,0 STARLINK-3519,1 51890U 22022AQ  23128.26779901  .00000637  00000-0  56973-4 0  9998,2 51890  53.2185 331.5021 0000999  82.8484 277.2622 15.09659538 66781,6915.377,95.386,537.932,536.551,0.0
51890.0,STARLINK-3519,PAYLOAD,2023-05-08 20:43:38,15.0965514,0.0001025,53.2183,328.8241,84.3966,275.7144,7.3672e-05,9.09e-06,0.0,0 STARLINK-3519,1 51890U 22022AQ  23128.86363847  .00000909  00000-0  73672-4 0  9999,2 51890  53.2183 328.8241 0001025  84.3966 275.7144 15.09655140 66872,6915.39,95.386,537.964,536.546,0.0
51890.0,STARLINK-3519,PAYLOAD,2023-05-10 06:05:39,15.09659615,9.74e-05,53.2185,322.5746,81.5549,278.5554,1.1222e-05,-1.07e-06,0.0,0 STARLINK-3519,1 51890U 22022AQ  23130.25392563 -.00000107  00000-0  11222-4 0  9996,2 51890  53.2185 322.5746 0000974  81.5549 278.5554 15.09659615 67084,6915.376,95.386,537.915,536.568,0.0
51890.0,STARLINK-3519,PAYLOAD,2023-05-10 20:23:39,15.09644921,9.24e-05,53.2182,319.8968,90.1389,269.971,0.00035441,5.481e-05,0.0,0 STARLINK-3519,1 51890U 22022AQ  23130.84975776  .00005481  00000-0  35441-3 0  9991,2 51890  53.2182 319.8968 0000924  90.1389 269.9710 15.09644921 67171,6915.421,95.387,537.925,536.647,0.0
51890.0,STARLINK-3519,PAYLOAD,2023-05-11 05:55:39,15.09662633,9.82e-05,53.2184,318.1112,80.7822,279.3282,6.777e-05,8.13e-06,0.0,0 STARLINK-3519,1 51890U 22022AQ  23131.24698076  .00000813  00000-0  67770-4 0  9996,2 51890  53.2184 318.1112 0000982  80.7822 279.3282 15.09662633 67233,6915.367,95.386,537.911,536.553,0.0
